#aV2023  6 14  0  0  0.00000000     288 DD+AD WGS84 FIT  NGA
## 2266 259200.00000000   300.00000000 60109 0.0000000000000
+   32     1  2  3  4  5  6  7  8  9 10 11 12 13 14 15 16 17
+         18 19 20 21 22 23 24 25 26 27 28 29 30 31 32  0  0
+          0  0  0  0  0  0  0  0  0  0  0  0  0  0  0  0  0
+          0  0  0  0  0  0  0  0  0  0  0  0  0  0  0  0  0
+          0  0  0  0  0  0  0  0  0  0  0  0  0  0  0  0  0
++         2  2  2  2  2  2  2  2  2  2  2  2  2  2  2  2  2
++         2  2  2  2  2  2  2  2  2  2  2  2  2  2  2  0  0
++         0  0  0  0  0  0  0  0  0  0  0  0  0  0  0  0  0
++         0  0  0  0  0  0  0  0  0  0  0  0  0  0  0  0  0
++         0  0  0  0  0  0  0  0  0  0  0  0  0  0  0  0  0
%c cc cc ccc ccc cccc cccc cccc cccc ccccc ccccc ccccc ccccc
%c cc cc ccc ccc cccc cccc cccc cccc ccccc ccccc ccccc ccccc
%f  0.0000000  0.000000000  0.00000000000  0.000000000000000
%f  0.0000000  0.000000000  0.00000000000  0.000000000000000
%i    0    0    0    0      0      0      0      0         0
%i    0    0    0    0      0      0      0      0         0
/*      NGA, ST. LOUIS,MO.                                  
/*   EPHEMERIS COMPUTED FROM 2 DAYS OF DATA                 
/*   EPOCHA v8 SMOOTHER                                     
/*   G2139 IERS2010 SATIGS SATAPC                           
*  2023  6 14  9 50  0.00000000
P  1   9624.159644 -19312.705243 -15584.047702    178.479902                    
V  1  16586.383204  -9900.956720  23353.367332     -0.023725                    
P  2  14027.939985 -20356.202897  -9006.198295   -585.908627                    
V  2  10923.510920  -6003.158765  29109.124041      0.035730                    
P  3   -985.714184 -16057.847727 -21292.281953   -270.865706                    
V  3  24586.764753  10266.870564  -8821.114986      0.134288                    
P  4    626.239666 -26228.323052  -3708.035704     67.975013                    
V  4   3168.215788   4515.106193 -31405.293643      0.102970                    
P  5 -16014.478009   8173.928773  19410.443959   -131.057384                    
V  5 -22872.590639 -10101.885390 -14371.494532     -0.014574                    
P  6 -20606.458258   1275.502601 -16706.001110    585.084151                    
V  6  16528.773551 -13372.511780 -21239.989883     -0.019358                    
P  7  -6337.892202 -14578.408649  21695.759885    152.641181                    
V  7  21813.309891 -15161.394994  -4384.131331     -0.100788                    
P  8   7515.713376 -20621.518415  14599.309970   -127.331817                    
V  8   4966.294605  18324.570871  23594.272133     -0.018748                    
P  9  -7443.302746 -24774.222833   5849.209074   -136.068788                    
V  9   1899.149054  -7851.169221 -30500.326449      0.088637                    
P 10  24197.673029  11332.693995    994.452542    -41.104847                    
V 10  -1733.913597   1379.365428  31920.996942     -0.015655                    
P 11 -23247.149359  12265.386792  -3657.907769   -235.035467                    
V 11   2419.892610  -4794.746554 -31431.643381     -0.150262                    
P 12  -3489.031874  15194.626691 -21788.411209   -388.422475                    
V 12 -24037.742736 -12269.370101  -4689.393549     -0.046990                    
P 13 -12988.298505  13801.088381  18341.927396    533.818973                    
V 13   -845.096079 -23746.309501  17305.442425      0.051662                    
P 14 -22645.081025 -13600.310235   3510.693394     90.179406                    
V 14   5295.572451   -816.735851  30971.741632      0.124025                    
P 15  -4746.504237  21945.240549  13525.672435     48.736760                    
V 15  -7556.264352 -16768.353039  24008.835062      0.035022                    
P 16  19593.166339  -3107.488708  17569.612795   -491.597485                    
V 16  19249.264906  12184.660399 -18543.255646      0.038471                    
P 17 -13010.114172 -13741.630350 -18166.630003    718.308299                    
V 17    358.009338 -23996.985533  17590.250490      0.012038                    
P 18   8571.805540  12223.922918  21964.353280   -307.047162                    
V 18 -22812.221458  15982.532941   -146.651456     -0.150384                    
P 19 -14752.829753  -5553.037823 -21642.187036    330.404860                    
V 19    259.109744 -26872.262957   6483.772045      0.051147                    
P 20 -22801.525899   3825.780739  12935.116465    428.083396                    
V 20 -15321.271885  -6613.258476 -25302.810476     -0.020751                    
P 21  15871.043529 -19606.160068  -6172.543917    153.111430                    
V 21   8881.071654  -3123.949904  30991.923909     -0.003181                    
P 22  14975.798613   1467.028632 -21441.021735    497.646707                    
V 22    597.217345  28293.048980   2151.166879      0.059549                    
P 23  17425.295431  16019.934149  12209.364562     33.072900                    
V 23 -14987.760099  -4065.763743  26581.357425      0.036146                    
P 24 -11664.087155  21103.751009 -11008.623967   -224.373030                    
V 24 -12491.262303   6473.434577  26933.145233     -0.131056                    
P 25  10076.752703  17747.299292 -17450.948581    449.706869                    
V 25 -20384.364641  -6929.791387 -18902.721249      0.025248                    
P 26  25392.212939   3149.583124   7636.587340    239.063672                    
V 26   8146.198117   6299.824264 -28893.772761     -0.008375                    
P 27  13132.738825  -9836.943415  20542.241147     16.773283                    
V 27   4088.161254  26449.504276  10329.946324     -0.076425                    
P 28  19785.554529    182.027118 -17738.211987     83.179755                    
V 28 -16652.124556  15192.028862 -18443.800730      0.008841                    
P 29   3602.011183  25942.096563   4049.082496   -602.743865                    
V 29  -2201.116022   5290.716297 -31603.597085     -0.011779                    
P 30 -15799.035465  -7090.497895  20316.046908   -511.113100                    
V 30  20151.959775 -15775.401637   9957.681744      0.024462                    
P 31  23715.096881  -9132.021720  -8608.537590   -218.140928                    
V 31  -7289.881821   8038.181827 -28781.654677     -0.007596                    
P 32  14789.407338  10762.812109 -19146.490011   -499.895667                    
V 32   1636.409451  24617.033387  14766.578504     -0.084674                    
EOF
